NOAA 15                 
1 25338U 98030A   23193.48071269  .00000257  00000+0  12512-3 0  9993
2 25338  98.6043 222.1035 0009351 236.1013 123.9278 14.26350435308862
DMSP 5D-3 F15 (USA 147) 
1 25991U 99067A   23193.14121971  .00000188  00000+0  11703-3 0  9992
2 25991  99.0698 196.9037 0010375 158.1705 292.4595 14.16758874218960
DMSP 5D-3 F16 (USA 172) 
1 28054U 03048A   23193.50709437  .00000060  00000+0  55702-4 0  9995
2 28054  99.0118 191.9452 0006342 300.6946 212.3596 14.13822836 18132
NOAA 18                 
1 28654U 05018A   23193.48801947  .00000221  00000+0  14240-3 0  9996
2 28654  98.9091 267.7556 0013296 311.1187  48.8836 14.12967725935147
METEOSAT-9 (MSG-2)      
1 28912U 05049B   23192.83364836  .00000120  00000+0  00000+0 0  9999
2 28912   6.9018  63.5934 0002113 165.5965  46.1033  1.00275207 64339
EWS-G1 (GOES 13)        
1 29155U 06018A   23192.71577257  .00000033  00000+0  00000+0 0  9999
2 29155   1.5891  91.5349 0003655  90.6421  66.4379  1.00277193 62766
DMSP 5D-3 F17 (USA 191) 
1 29522U 06050A   23193.48979216  .00000073  00000+0  60790-4 0  9990
2 29522  98.7526 205.9874 0009052 226.5189 133.5232 14.14262970861036
FENGYUN 3A              
1 32958U 08026A   23193.45686046  .00000153  00000+0  93640-4 0  9994
2 32958  98.5562 146.3812 0008395 344.3306  15.7609 14.18888127783641
FENGYUN 2E              
1 33463U 08066A   23192.79872394 -.00000212  00000+0  00000+0 0  9999
2 33463   6.7751  62.8350 0000301 222.6194  18.2458  1.00276098 53358
NOAA 19                 
1 33591U 09005A   23193.46489797  .00000221  00000+0  14377-3 0  9996
2 33591  99.0979 239.7939 0014156 167.8259 192.3257 14.12784734743513
GOES 14                 
1 35491U 09033A   23193.18219715 -.00000066  00000+0  00000+0 0  9990
2 35491   0.3946 103.3529 0005347 339.5529 163.8720  1.00272033 51410
DMSP 5D-3 F18 (USA 210) 
1 35951U 09057A   23193.46879321  .00000325  00000+0  19437-3 0  9998
2 35951  98.7682 169.3351 0012247  59.6002 300.6380 14.13797601708218
GOES 15                 
1 36411U 10008A   23192.59910823  .00000007  00000+0  00000+0 0  9993
2 36411   0.4171  95.5300 0001294  72.6651 157.5784  0.99986246 48906
COMS 1                  
1 36744U 10032A   23193.01229984 -.00000347  00000+0  00000+0 0  9996
2 36744   2.0628  88.4551 0000756  42.6738 291.0690  1.00271060 47918
FENGYUN 3B              
1 37214U 10059A   23193.47310583  .00000101  00000+0  76781-4 0  9995
2 37214  99.0828 211.2697 0021766 337.5462 167.9342 14.14354636656089
SUOMI NPP               
1 37849U 11061A   23193.48640542  .00000087  00000+0  62053-4 0  9995
2 37849  98.7047 131.7749 0001138 107.5406  16.7344 14.19545520606526
FENGYUN 2F              
1 38049U 12002A   23193.26194891 -.00000360  00000+0  00000+0 0  9995
2 38049   4.7489  76.4622 0004454  89.2832 330.2150  1.00260948 42150
METEOSAT-10 (MSG-3)     
1 38552U 12035B   23190.07922087 -.00000016  00000+0  00000+0 0  9990
2 38552   2.2182  56.2491 0000497  21.8999 236.6238  1.00270903 40449
METOP-B                 
1 38771U 12049A   23193.46326389  .00000129  00000+0  78678-4 0  9992
2 38771  98.6772 252.4141 0000982  86.2046 110.8430 14.21509021561139
FENGYUN 3C              
1 39260U 13052A   23193.46813114  .00000096  00000+0  69401-4 0  9995
2 39260  98.4276 206.2456 0010147 225.7818 134.2525 14.16052661507106
METEOR-M 2              
1 40069U 14037A   23193.48233297  .00000109  00000+0  69821-4 0  9999
2 40069  98.4231 198.2821 0004413 269.2948  90.7724 14.20791770467241
HIMAWARI-8              
1 40267U 14060A   23193.53253852 -.00000276  00000+0  00000+0 0  9995
2 40267   0.0329 285.5541 0000888 211.0904 125.8435  1.00270357 32127
FENGYUN 2G              
1 40367U 14090A   23193.29830073 -.00000305  00000+0  00000+0 0  9991
2 40367   2.9192  85.4151 0001405  82.0227 329.4529  1.00276931 31300
METEOSAT-11 (MSG-4)     
1 40732U 15034A   23192.08452293  .00000062  00000+0  00000+0 0  9995
2 40732   0.6321  45.8002 0000559  51.4012 231.3221  1.00277731 29262
ELEKTRO-L 2             
1 41105U 15074A   23193.15049316 -.00000120  00000+0  00000+0 0  9997
2 41105   3.9719  83.5657 0001630 104.3029 141.5779  1.00272107 27772
HIMAWARI-9              
1 41836U 16064A   23192.71229965 -.00000276  00000+0  00000+0 0  9991
2 41836   0.0191  51.8515 0001183 107.3970 167.2900  1.00272178 24559
GOES 16                 
1 41866U 16071A   23191.22132674 -.00000251  00000+0  00000+0 0  9990
2 41866   0.0421 215.3075 0000310 311.7173 125.3209  1.00271989 24335
FENGYUN 4A              
1 41882U 16077A   23193.27742458 -.00000329  00000+0  00000+0 0  9994
2 41882   0.0563  54.6002 0003381 102.4236 337.3432  1.00266295 24247
CYGFM05                 
1 41884U 16078A   23193.43923050  .00005616  00000+0  25165-3 0  9990
2 41884  34.9550 286.6142 0013632 347.9277  12.1108 15.20514074364180
CYGFM04                 
1 41885U 16078B   23192.62217954  .00005000  00000+0  21987-3 0  9995
2 41885  34.9484 278.6290 0012003   1.2816 358.7926 15.21201937364181
CYGFM02                 
1 41886U 16078C   23192.93124832  .00004835  00000+0  21276-3 0  9998
2 41886  34.9572 279.0252 0012684 356.2252   3.8365 15.21180777364223
CYGFM01                 
1 41887U 16078D   23192.37789621  .00004167  00000+0  18842-3 0  9993
2 41887  34.9520 296.3329 0014234 336.9720  23.0353 15.20269953363988
CYGFM08                 
1 41888U 16078E   23192.36307708  .00004359  00000+0  19382-3 0  9998
2 41888  34.9489 287.0848 0013194 351.4016   8.6470 15.20850238364049
CYGFM07                 
1 41890U 16078G   23192.36987124  .00004512  00000+0  19816-3 0  9990
2 41890  34.9510 279.8491 0011542 356.0945   3.9677 15.21278783364145
CYGFM03                 
1 41891U 16078H   23192.64660877  .00004557  00000+0  20113-3 0  9996
2 41891  34.9542 278.9092 0011082 355.7930   4.2689 15.21110645364179
FENGYUN 3D              
1 43010U 17072A   23193.44527301  .00000104  00000+0  71243-4 0  9994
2 43010  98.8625 142.0849 0000796 182.1405 177.9767 14.19181003293083
NOAA 20                 
1 43013U 17073A   23193.42661768  .00000077  00000+0  57187-4 0  9992
2 43013  98.7126 131.5042 0001556  73.3267 286.8080 14.19544595292559
GOES 17                 
1 43226U 18022A   23193.20852399 -.00000091  00000+0  00000+0 0  9995
2 43226   0.0401 192.9226 0002104 283.9060 143.3409  1.00271451 19690
FENGYUN 2H              
1 43491U 18050A   23192.71646911 -.00000126  00000+0  00000+0 0  9995
2 43491   2.1401  90.7692 0003461  74.3067 101.0533  1.00267218 18767
METOP-C                 
1 43689U 18087A   23193.46160398  .00000129  00000+0  78833-4 0  9993
2 43689  98.6817 252.5617 0002686  16.2666 343.8597 14.21500148242719
GEO-KOMPSAT-2A          
1 43823U 18100A   23193.06299407 -.00000344  00000+0  00000+0 0  9995
2 43823   0.0302 160.6460 0002167 299.7513 340.2256  1.00271522 16922
METEOR-M2 2             
1 44387U 19038A   23193.47038683  .00000043  00000+0  38543-4 0  9997
2 44387  98.7768 157.3254 0000845 163.3133 196.8073 14.23791433208907
FENGYUN 3E              
1 49008U 21062A   23193.45453957  .00000029  00000+0  34275-4 0  9997
2 49008  98.7216 194.5007 0000672 339.4578  20.6571 14.19687273104640
GOES 18                 
1 51850U 22021A   23192.50743631  .00000096  00000+0  00000+0 0  9995
2 51850   0.0369 187.1486 0000347 306.0267 201.6345  1.00270919  5052
NOAA 21 (JPSS-2)        
1 54234U 22150A   23192.80813961  .00000083  00000+0  60285-4 0  9996
2 54234  98.7166 130.3752 0001298  67.4784 292.6530 14.19561488 34544
METEOSAT-12             
1 54743U 22170C   23192.09007753 -.00000031  00000+0  00000+0 0  9996
2 54743   0.6685 310.5851 0002582 140.5982 226.6207  1.00273015  2229
METEOR-M2 3             
1 57166U 23091A   23190.99476123 -.00001862  00000+0 -79443-3 0  9994
2 57166  98.7620 242.7951 0004844  54.5391  14.7427 14.23830323  1786
